0 BREEZE-M DEB
1 38747U 12044D   13282.16380724  .00078646  33257-5  22051-2 0  3607
2 38747 049.8985 339.5971 2349213 110.7919 275.9073 10.72730564 44762
0 BREEZE-M DEB
1 38747U 12044D   13282.44330227  .00082817  33749-5  23186-2 0  3613
2 38747 049.8985 338.9143 2348945 111.3608 275.2812 10.72795962 44799
0 BREEZE-M DEB
1 38747U 12044D   13283.09539743  .00076327  32950-5  21410-2 0  3620
2 38747 049.8984 337.3221 2348470 112.6913 273.8070 10.72882388 44861
0 BREEZE-M DEB
1 38747U 12044D   13284.11999755  .00072224  32440-5  20289-2 0  3637
2 38747 049.8983 334.8196 2347787 114.7798 271.4604 10.73013189 44972
0 BREEZE-M DEB
1 38747U 12044D   13287.47228258  .00075509  32571-5  21276-2 0  3655
2 38747 049.8970 326.6276 2345441 121.6040 263.5075 10.73446241 45332
0 BREEZE-M DEB
1 38747U 12044D   13287.56538145  .00085300  33735-5  24001-2 0  3667
2 38747 049.8969 326.4002 2345325 121.7916 263.2820 10.73467827 45348
0 BREEZE-M DEB
1 38747U 12044D   13288.40318958  .00096479  35183-5  27099-2 0  3678
2 38747 049.8964 324.3518 2344568 123.4969 261.2212 10.73627224 45439
0 BREEZE-M DEB
1 38747U 12044D   13289.14779891  .00091008  34361-5  25572-2 0  3682
2 38747 049.8959 322.5308 2343988 125.0159 259.3632 10.73749266 45518
0 BREEZE-M DEB
1 38747U 12044D   13289.52007078  .00092169  34486-5  25900-2 0  3698
2 38747 049.8957 321.6200 2343732 125.7733 258.4292 10.73798951 45550
0 BREEZE-M DEB
1 38747U 12044D   13290.45066418  .00089254  34008-5  25065-2 0  3700
2 38747 049.8952 319.3433 2343122 127.6678 256.0692 10.73936332 45655
0 BREEZE-M DEB
1 38747U 12044D   13290.45067698  .00060167  00000-0  16669-2 0  3703
2 38747 049.8963 319.3382 2343071 127.6783 256.1091 10.73954604 45656
0 BREEZE-M DEB
1 38747U 12044D   13291.10200469  .00078215  32571-5  21986-2 0  3716
2 38747 049.8947 317.7493 2342715 128.9970 254.3936 10.74027847 45726
0 BREEZE-M DEB
1 38747U 12044D   13293.05565093  .00076875  32214-5  21571-2 0  3724
2 38747 049.8941 312.9656 2341462 132.9803 249.2728 10.74309212 45930
0 BREEZE-M DEB
1 38747U 12044D   13293.52072842  .00078851  32389-5  22115-2 0  3736
2 38747 049.8942 311.8267 2341205 133.9270 248.0346 10.74363511 45981
0 BREEZE-M DEB
1 38747U 12044D   13294.45079952  .00078658  32257-5  22046-2 0  3741
2 38747 049.8942 309.5489 2340674 135.8251 245.5273 10.74480800 46084
0 BREEZE-M DEB
1 38747U 12044D   13295.47374648  .00079509  32234-5  22242-2 0  3754
2 38747 049.8942 307.0431 2340077 137.9143 242.7300 10.74625274 46192
